CCSDS_OMM_VERS = 2.0
CREATION_DATE  = 
ORIGINATOR     = 

OBJECT_NAME    = SL-14 R/B
OBJECT_ID      = 1991-042B
CENTER_NAME    = EARTH
REF_FRAME      = TEME
TIME_SYSTEM    = UTC
MEAN_ELEMENT_THEORY = SGP/SGP4

EPOCH          = 2025-12-22T20:15:16.718400
MEAN_MOTION    = 14.81747517
ECCENTRICITY   = .00182342
INCLINATION    = 82.4935
RA_OF_ASC_NODE = 292.2484
ARG_OF_PERICENTER = 130.0404
MEAN_ANOMALY   = 230.2413

EPHEMERIS_TYPE = 0
CLASSIFICATION_TYPE = U
NORAD_CAT_ID   = 21423
ELEMENT_SET_NO = 999
REV_AT_EPOCH   = 84169
BSTAR          = .49056861E-4
MEAN_MOTION_DOT = .411E-5
MEAN_MOTION_DDOT = 0

CCSDS_OMM_VERS = 2.0
CREATION_DATE  = 
ORIGINATOR     = 

OBJECT_NAME    = ERS-1
OBJECT_ID      = 1991-050A
CENTER_NAME    = EARTH
REF_FRAME      = TEME
TIME_SYSTEM    = UTC
MEAN_ELEMENT_THEORY = SGP/SGP4

EPOCH          = 2025-12-22T07:55:07.267008
MEAN_MOTION    = 14.39371796
ECCENTRICITY   = .00329802
INCLINATION    = 98.7900
RA_OF_ASC_NODE = 7.6244
ARG_OF_PERICENTER = 72.4313
MEAN_ANOMALY   = 288.0473

EPHEMERIS_TYPE = 0
CLASSIFICATION_TYPE = U
NORAD_CAT_ID   = 21574
ELEMENT_SET_NO = 999
REV_AT_EPOCH   = 80460
BSTAR          = .10957695E-3
MEAN_MOTION_DOT = .297E-5
MEAN_MOTION_DDOT = 0

CCSDS_OMM_VERS = 2.0
CREATION_DATE  = 
ORIGINATOR     = 

OBJECT_NAME    = ARIANE 40 R/B
OBJECT_ID      = 1991-050F
CENTER_NAME    = EARTH
REF_FRAME      = TEME
TIME_SYSTEM    = UTC
MEAN_ELEMENT_THEORY = SGP/SGP4

EPOCH          = 2025-12-22T21:52:32.138976
MEAN_MOTION    = 14.42821182
ECCENTRICITY   = .00021894
INCLINATION    = 98.2151
RA_OF_ASC_NODE = 46.9744
ARG_OF_PERICENTER = 324.0179
MEAN_ANOMALY   = 36.0864

EPHEMERIS_TYPE = 0
CLASSIFICATION_TYPE = U
NORAD_CAT_ID   = 21610
ELEMENT_SET_NO = 999
REV_AT_EPOCH   = 80792
BSTAR          = .10693776E-3
MEAN_MOTION_DOT = .315E-5
MEAN_MOTION_DDOT = 0

CCSDS_OMM_VERS = 2.0
CREATION_DATE  = 
ORIGINATOR     = 

OBJECT_NAME    = INTERCOSMOS 25
OBJECT_ID      = 1991-086A
CENTER_NAME    = EARTH
REF_FRAME      = TEME
TIME_SYSTEM    = UTC
MEAN_ELEMENT_THEORY = SGP/SGP4

EPOCH          = 2025-12-22T11:02:33.422784
MEAN_MOTION    = 12.11765115
ECCENTRICITY   = .1486363
INCLINATION    = 82.6074
RA_OF_ASC_NODE = 356.6954
ARG_OF_PERICENTER = 283.4379
MEAN_ANOMALY   = 60.5730

EPHEMERIS_TYPE = 0
CLASSIFICATION_TYPE = U
NORAD_CAT_ID   = 21819
ELEMENT_SET_NO = 999
REV_AT_EPOCH   = 48733
BSTAR          = .43268277E-3
MEAN_MOTION_DOT = .2173E-4
MEAN_MOTION_DDOT = 0

CCSDS_OMM_VERS = 2.0
CREATION_DATE  = 
ORIGINATOR     = 

OBJECT_NAME    = SL-8 R/B
OBJECT_ID      = 1992-008B
CENTER_NAME    = EARTH
REF_FRAME      = TEME
TIME_SYSTEM    = UTC
MEAN_ELEMENT_THEORY = SGP/SGP4

EPOCH          = 2025-12-22T20:38:28.845312
MEAN_MOTION    = 13.75961193
ECCENTRICITY   = .00345459
INCLINATION    = 82.9270
RA_OF_ASC_NODE = 324.9184
ARG_OF_PERICENTER = 351.7250
MEAN_ANOMALY   = 70.7101

EPHEMERIS_TYPE = 0
CLASSIFICATION_TYPE = U
NORAD_CAT_ID   = 21876
ELEMENT_SET_NO = 999
REV_AT_EPOCH   = 69885
BSTAR          = .10389503E-3
MEAN_MOTION_DOT = .116E-5
MEAN_MOTION_DDOT = 0

CCSDS_OMM_VERS = 2.0
CREATION_DATE  = 
ORIGINATOR     = 

OBJECT_NAME    = SL-8 R/B
OBJECT_ID      = 1992-020B
CENTER_NAME    = EARTH
REF_FRAME      = TEME
TIME_SYSTEM    = UTC
MEAN_ELEMENT_THEORY = SGP/SGP4

EPOCH          = 2025-12-22T23:06:14.245632
MEAN_MOTION    = 13.75529688
ECCENTRICITY   = .0029553
INCLINATION    = 82.9295
RA_OF_ASC_NODE = 210.7262
ARG_OF_PERICENTER = 149.8613
MEAN_ANOMALY   = 324.5555

EPHEMERIS_TYPE = 0
CLASSIFICATION_TYPE = U
NORAD_CAT_ID   = 21938
ELEMENT_SET_NO = 999
REV_AT_EPOCH   = 69058
BSTAR          = .12843634E-3
MEAN_MOTION_DOT = .139E-5
MEAN_MOTION_DDOT = 0

CCSDS_OMM_VERS = 2.0
CREATION_DATE  = 
ORIGINATOR     = 

OBJECT_NAME    = USA 81
OBJECT_ID      = 1992-023A
CENTER_NAME    = EARTH
REF_FRAME      = TEME
TIME_SYSTEM    = UTC
MEAN_ELEMENT_THEORY = SGP/SGP4

EPOCH          = 2025-12-22T21:13:18.424992
MEAN_MOTION    = 14.32330412
ECCENTRICITY   = .0001098
INCLINATION    = 85.0079
RA_OF_ASC_NODE = 175.7253
ARG_OF_PERICENTER = 82.5632
MEAN_ANOMALY   = 277.5686

EPHEMERIS_TYPE = 0
CLASSIFICATION_TYPE = U
NORAD_CAT_ID   = 21949
ELEMENT_SET_NO = 999
REV_AT_EPOCH   = 8379
BSTAR          = .59037183E-4
MEAN_MOTION_DOT = .179E-5
MEAN_MOTION_DDOT = 0

CCSDS_OMM_VERS = 2.0
CREATION_DATE  = 
ORIGINATOR     = 

OBJECT_NAME    = COSMOS 2219
OBJECT_ID      = 1992-076A
CENTER_NAME    = EARTH
REF_FRAME      = TEME
TIME_SYSTEM    = UTC
MEAN_ELEMENT_THEORY = SGP/SGP4

EPOCH          = 2025-12-22T21:51:57.897792
MEAN_MOTION    = 14.14066164
ECCENTRICITY   = .00192894
INCLINATION    = 71.0575
RA_OF_ASC_NODE = 178.5696
ARG_OF_PERICENTER = 312.9765
MEAN_ANOMALY   = 46.9740

EPHEMERIS_TYPE = 0
CLASSIFICATION_TYPE = U
NORAD_CAT_ID   = 22219
ELEMENT_SET_NO = 999
REV_AT_EPOCH   = 70752
BSTAR          = .17099266E-3
MEAN_MOTION_DOT = .279E-5
MEAN_MOTION_DDOT = 0

CCSDS_OMM_VERS = 2.0
CREATION_DATE  = 
ORIGINATOR     = 

OBJECT_NAME    = SL-16 R/B
OBJECT_ID      = 1992-076B
CENTER_NAME    = EARTH
REF_FRAME      = TEME
TIME_SYSTEM    = UTC
MEAN_ELEMENT_THEORY = SGP/SGP4

EPOCH          = 2025-12-22T11:17:53.583648
MEAN_MOTION    = 14.16844519
ECCENTRICITY   = .00142968
INCLINATION    = 71.0008
RA_OF_ASC_NODE = 351.0332
ARG_OF_PERICENTER = 221.0022
MEAN_ANOMALY   = 254.6556

EPHEMERIS_TYPE = 0
CLASSIFICATION_TYPE = U
NORAD_CAT_ID   = 22220
ELEMENT_SET_NO = 999
REV_AT_EPOCH   = 71089
BSTAR          = .12276436E-3
MEAN_MOTION_DOT = .198E-5
MEAN_MOTION_DDOT = 0

CCSDS_OMM_VERS = 2.0
CREATION_DATE  = 
ORIGINATOR     = 

OBJECT_NAME    = COSMOS 2221
OBJECT_ID      = 1992-080A
CENTER_NAME    = EARTH
REF_FRAME      = TEME
TIME_SYSTEM    = UTC
MEAN_ELEMENT_THEORY = SGP/SGP4

EPOCH          = 2025-12-22T10:49:23.074464
MEAN_MOTION    = 14.95796314
ECCENTRICITY   = .00162829
INCLINATION    = 82.5038
RA_OF_ASC_NODE = 353.0296
ARG_OF_PERICENTER = 91.9247
MEAN_ANOMALY   = 268.3840

EPHEMERIS_TYPE = 0
CLASSIFICATION_TYPE = U
NORAD_CAT_ID   = 22236
ELEMENT_SET_NO = 999
REV_AT_EPOCH   = 76924
BSTAR          = .16476743E-3
MEAN_MOTION_DOT = .1868E-4
MEAN_MOTION_DDOT = 0

CCSDS_OMM_VERS = 2.0
CREATION_DATE  = 
ORIGINATOR     = 

OBJECT_NAME    = SL-16 R/B
OBJECT_ID      = 1992-093B
CENTER_NAME    = EARTH
REF_FRAME      = TEME
TIME_SYSTEM    = UTC
MEAN_ELEMENT_THEORY = SGP/SGP4

EPOCH          = 2025-12-22T22:05:48.671808
MEAN_MOTION    = 14.15435258
ECCENTRICITY   = .00024561
INCLINATION    = 71.0206
RA_OF_ASC_NODE = 165.4239
ARG_OF_PERICENTER = 38.0684
MEAN_ANOMALY   = 322.0612

EPHEMERIS_TYPE = 0
CLASSIFICATION_TYPE = U
NORAD_CAT_ID   = 22285
ELEMENT_SET_NO = 999
REV_AT_EPOCH   = 70229
BSTAR          = .35819605E-4
MEAN_MOTION_DOT = .22E-6
MEAN_MOTION_DDOT = 0

CCSDS_OMM_VERS = 2.0
CREATION_DATE  = 
ORIGINATOR     = 

OBJECT_NAME    = COSMOS 2228
OBJECT_ID      = 1992-094A
CENTER_NAME    = EARTH
REF_FRAME      = TEME
TIME_SYSTEM    = UTC
MEAN_ELEMENT_THEORY = SGP/SGP4

EPOCH          = 2025-12-22T20:26:51.912672
MEAN_MOTION    = 14.96772874
ECCENTRICITY   = .00172887
INCLINATION    = 82.5185
RA_OF_ASC_NODE = 310.8584
ARG_OF_PERICENTER = 195.3156
MEAN_ANOMALY   = 164.7546

EPHEMERIS_TYPE = 0
CLASSIFICATION_TYPE = U
NORAD_CAT_ID   = 22286
ELEMENT_SET_NO = 999
REV_AT_EPOCH   = 76456
BSTAR          = .17070447E-3
MEAN_MOTION_DOT = .1984E-4
MEAN_MOTION_DDOT = 0

